{"spkid": "20138727", "covariance": {"elements": [{"label": "e", "title": "eccentricity", "value": ".6084044918988476", "units": null, "sigma": 6.84532730980227e-08, "name": "e"}, {"units": "au", "value": ".8232150908023194", "title": "perihelion distance", "sigma": 1.3997150019432e-07, "name": "q", "label": "q"}, {"label": "tp", "units": "TDB", "value": "2453015.877176251053", "title": "time of perihelion passage", "sigma": 1.9463518083499e-05, "name": "tp"}, {"name": "om", "sigma": 9.0598308747708e-05, "units": "deg", "value": "328.5180474621205", "title": "longitude of the ascending node", "label": "node"}, {"sigma": 8.3184499112768e-05, "name": "w", "value": "135.3775783337878", "title": "argument of perihelion", "units": "deg", "label": "peri"}, {"label": "i", "units": "deg", "title": "inclination", "value": "11.82576957041412", "name": "i", "sigma": 2.74481441290119e-05}], "data": [["4.685850597832475E-15", "-9.575022166701347E-15", "8.842415889133173E-14", "1.85882427638339E-12", "-1.373875703125766E-12", "2.273929239403142E-13"], ["-9.575022166701347E-15", "1.959202086664865E-14", "-2.415092200226531E-13", "-3.999013956087313E-12", "2.963279007207873E-12", "-5.310887333978242E-13"], ["8.842415889133173E-14", "-2.415092200226531E-13", "3.788285361866907E-10", "5.705755939912687E-10", "-2.871333589759868E-10", "2.09881614760469E-10"], ["1.85882427638339E-12", "-3.999013956087313E-12", "5.705755939912687E-10", "8.208053547945025E-9", "-7.410891084168487E-9", "2.154901925894779E-9"], ["-1.373875703125766E-12", "2.963279007207873E-12", "-2.871333589759868E-10", "-7.410891084168487E-9", "6.919660892642095E-9", "-1.942830917861581E-9"], ["2.273929239403142E-13", "-5.310887333978242E-13", "2.09881614760469E-10", "2.154901925894779E-9", "-1.942830917861581E-9", "7.534006161270129E-10"]], "labels": ["e", "q", "tp", "node", "peri", "i"], "epoch": "2453041.5"}, "elements": [{"label": "e", "sigma": "6.9255E-8", "name": "e", "units": null, "value": ".6051519894854337", "title": "eccentricity"}, {"label": "a", "sigma": "2.0574E-8", "name": "a", "units": "au", "value": "2.105103686186768", "title": "semi-major axis"}, {"units": "au", "title": "perihelion distance", "value": ".8311960024177251", "name": "q", "sigma": "1.4151E-7", "label": "q"}, {"units": "deg", "title": "inclination; angle with respect to x-y ecliptic plane", "value": "11.92099479861062", "sigma": "2.7778E-5", "name": "i", "label": "i"}, {"label": "node", "sigma": "8.9005E-5", "name": "om", "units": "deg", "title": "longitude of the ascending node", "value": "327.8820437762039"}, {"units": "deg", "title": "argument of perihelion", "value": "136.3439943252375", "name": "w", "sigma": "8.1938E-5", "label": "peri"}, {"units": "deg", "title": "mean anomaly", "value": "122.9057784434205", "sigma": "3.2751E-5", "name": "ma", "label": "M"}, {"label": "tp", "title": "time of perihelion passage", "value": "2460819.628509472799", "units": "TDB", "sigma": "9.6066E-5", "name": "tp"}, {"value": "1115.600408103777", "title": "sidereal orbital period", "units": "d", "sigma": "1.6354E-5", "name": "per", "label": "period"}, {"value": ".3226961888727739", "title": "mean motion", "units": "deg/d", "name": "n", "sigma": "4.7307E-9", "label": "n"}, {"label": "Q", "sigma": "3.3024E-8", "name": "ad", "units": "au", "title": "aphelion distance", "value": "3.37901136995581"}], "epoch": "2461200.5"}